{
    "links": {
        "self": "http://www.neowsapp.com/rest/v1/neo/3756756?api_key=iIulBulltgU6a56xZRHN4H3l9WmuAYTsLGpBGhQ2"
    },
    "id": "3756756",
    "neo_reference_id": "3756756",
    "name": "(2016 OL1)",
    "designation": "2016 OL1",
    "nasa_jpl_url": "http://ssd.jpl.nasa.gov/sbdb.cgi?sstr=3756756",
    "absolute_magnitude_h": 21.1,
    "estimated_diameter": {
        "kilometers": {
            "estimated_diameter_min": 0.160160338,
            "estimated_diameter_max": 0.358129403
        },
        "meters": {
            "estimated_diameter_min": 160.1603379786,
            "estimated_diameter_max": 358.1294030194
        },
        "miles": {
            "estimated_diameter_min": 0.0995189894,
            "estimated_diameter_max": 0.2225312253
        },
        "feet": {
            "estimated_diameter_min": 525.4604432536,
            "estimated_diameter_max": 1174.9652706022
        }
    },
    "is_potentially_hazardous_asteroid": false,
    "close_approach_data": [
        {
            "close_approach_date": "2016-07-05",
            "close_approach_date_full": "2016-Jul-05 18:30",
            "epoch_date_close_approach": 1467743400000,
            "relative_velocity": {
                "kilometers_per_second": "15.848748544",
                "kilometers_per_hour": "57055.494758459",
                "miles_per_hour": "35452.0656181103"
            },
            "miss_distance": {
                "astronomical": "0.2806347512",
                "lunar": "109.1669182168",
                "kilometers": "41982361.027499944",
                "miles": "26086629.4894054672"
            },
            "orbiting_body": "Earth"
        }
    ],
    "orbital_data": {
        "orbit_id": "7",
        "orbit_determination_date": "2017-04-06 08:24:48",
        "first_observation_date": "2016-07-31",
        "last_observation_date": "2016-08-31",
        "data_arc_in_days": 31,
        "observations_used": 34,
        "orbit_uncertainty": "7",
        "minimum_orbit_intersection": ".149872",
        "jupiter_tisserand_invariant": "3.920",
        "epoch_osculation": "2459000.5",
        "eccentricity": ".3518444905969649",
        "semi_major_axis": "1.775898469569853",
        "inclination": "25.14215321592636",
        "ascending_node_longitude": "281.6399632049151",
        "orbital_period": "864.4216316724657",
        "perihelion_distance": "1.151058377192119",
        "perihelion_argument": "339.9313682068752",
        "aphelion_distance": "2.400738561947588",
        "perihelion_time": "2459294.102009922288",
        "mean_anomaly": "237.7254991091281",
        "mean_motion": ".4164634326694014",
        "equinox": "J2000",
        "orbit_class": {
            "orbit_class_type": "AMO",
            "orbit_class_description": "Near-Earth asteroid orbits similar to that of 1221 Amor",
            "orbit_class_range": "1.017 AU < q (perihelion) < 1.3 AU"
        }
    },
    "is_sentry_object": false
}